{
    "satellites": [
        {
            "name": "starlink338",
            "title": "Starlink-338 (G6-99) (new)",
            "tle": [
                "1 71284C 25303M   25357.87479167 -.01803100  00000+0 -42109-2 0  3576",
                "2 71284  43.0028  29.5646 0000915 275.4709 241.3431 15.97809981    18"
            ],
            "stdMag": 5,
            "noradId": "71284",
            "tleUrl": "http://celestrak.org/NORAD/elements/supplemental/sup-gp.php?FILE=starlink&FORMAT=tle",
            "launchDate": "2025-12-17T13:42:10.000Z",
            "active": true,
            "batch": [
                {
                    "noradId": "71284",
                    "tle": [
                        "1 71284C 25303M   25357.87479167 -.01803100  00000+0 -42109-2 0  3576",
                        "2 71284  43.0028  29.5646 0000915 275.4709 241.3431 15.97809981    18"
                    ]
                },
                {
                    "noradId": "71283",
                    "tle": [
                        "1 71283C 25303L   25357.87131944 -.01804300  00000+0 -42168-2 0  3571",
                        "2 71283  43.0027  29.5883 0000919 275.0697 221.0130 15.97797386    11"
                    ]
                },
                {
                    "noradId": "71277",
                    "tle": [
                        "1 71277C 25303E   25357.87201389 -.01804400  00000+0 -42483-2 0  3576",
                        "2 71277  43.0027  29.5923 0000785 272.3928 224.4086 15.97662794    18"
                    ]
                },
                {
                    "noradId": "71276",
                    "tle": [
                        "1 71276C 25303D   25357.87826389 -.01802600  00000+0 -42685-2 0  3572",
                        "2 71276  43.0027  29.5578 0000774 272.8670 258.1072 15.97555759    11"
                    ]
                },
                {
                    "noradId": "71275",
                    "tle": [
                        "1 71275C 25303C   25357.87895833 -.01804000  00000+0 -42658-2 0  3577",
                        "2 71275  43.0026  29.5517 0000792 268.9179 266.6562 15.97582574    15"
                    ]
                },
                {
                    "noradId": "71274",
                    "tle": [
                        "1 71274C 25303B   25357.87062500 -.01802800  00000+0 -42690-2 0  3575",
                        "2 71274  43.0026  29.6069 0001076 270.4120 216.0059 15.97554492    15"
                    ]
                }
            ]
        }
    ],
    "config": {}
}